[{"OBJECT_NAME":"STARLINK-35534","OBJECT_ID":"2025-243AB","EPOCH":"2026-03-09T18:01:52.919616","MEAN_MOTION":15.30197677,"ECCENTRICITY":8.266e-5,"INCLINATION":53.1599,"RA_OF_ASC_NODE":244.9327,"ARG_OF_PERICENTER":53.007,"MEAN_ANOMALY":307.1007,"EPHEMERIS_TYPE":0,"CLASSIFICATION_TYPE":"U","NORAD_CAT_ID":66202,"ELEMENT_SET_NO":999,"REV_AT_EPOCH":2066,"BSTAR":0.00092720001,"MEAN_MOTION_DOT":0.000272,"MEAN_MOTION_DDOT":0},{"OBJECT_NAME":"PUCP-SAT 1","OBJECT_ID":"2013-066AC","EPOCH":"2026-03-09T22:02:13.763904","MEAN_MOTION":15.29426022,"ECCENTRICITY":0.00136836,"INCLINATION":97.5787,"RA_OF_ASC_NODE":61.0032,"ARG_OF_PERICENTER":300.1183,"MEAN_ANOMALY":59.87,"EPHEMERIS_TYPE":0,"CLASSIFICATION_TYPE":"U","NORAD_CAT_ID":39442,"ELEMENT_SET_NO":999,"REV_AT_EPOCH":66907,"BSTAR":0.00088755185,"MEAN_MOTION_DOT":0.00025373,"MEAN_MOTION_DDOT":0}]
